[{"OBJECT_NAME":"ALISIO-1","OBJECT_ID":"2023-185M","EPOCH":"2026-03-09T23:05:14.691840","MEAN_MOTION":15.16299812,"ECCENTRICITY":0.00049564,"INCLINATION":97.5439,"RA_OF_ASC_NODE":142.8755,"ARG_OF_PERICENTER":306.4633,"MEAN_ANOMALY":53.6142,"EPHEMERIS_TYPE":0,"CLASSIFICATION_TYPE":"U","NORAD_CAT_ID":58562,"ELEMENT_SET_NO":999,"REV_AT_EPOCH":12351,"BSTAR":0.00026900054,"MEAN_MOTION_DOT":5.144e-5,"MEAN_MOTION_DDOT":0},{"OBJECT_NAME":"OBJECT B","OBJECT_ID":"2024-105B","EPOCH":"2026-03-09T23:14:43.984032","MEAN_MOTION":15.17318063,"ECCENTRICITY":0.00110488,"INCLINATION":97.5903,"RA_OF_ASC_NODE":84.1254,"ARG_OF_PERICENTER":221.685,"MEAN_ANOMALY":138.3542,"EPHEMERIS_TYPE":0,"CLASSIFICATION_TYPE":"U","NORAD_CAT_ID":59918,"ELEMENT_SET_NO":999,"REV_AT_EPOCH":9799,"BSTAR":0.00069707648,"MEAN_MOTION_DOT":0.00013867,"MEAN_MOTION_DDOT":0}]
